GEOSCAN-3 (RS92S3)
1 64893U 25155T   26203.89353620  .00022460  00000-0  63083-3 0  9994
2 64893  97.4555 174.2213 0008165  67.5794 292.6314 15.36515698 86331
INNOSAT3 (RS92S0)
1 64894U 25155U   26203.86744213  .00048516  00000-0  98104-3 0  9996
2 64894  97.4498 176.2884 0007689  73.7606 286.4489 15.46285100 86477
KNACKSAT-2
1 67683U 98067XZ  26203.48508607  .00058135  00000-0  62867-3 0  9995
2 67683  51.6274 116.5146 0007587 352.0545   8.0328 15.62993156 25793
