OBJECT_NAME,OBJECT_ID,EPOCH,MEAN_MOTION,ECCENTRICITY,INCLINATION,RA_OF_ASC_NODE,ARG_OF_PERICENTER,MEAN_ANOMALY,EPHEMERIS_TYPE,CLASSIFICATION_TYPE,NORAD_CAT_ID,ELEMENT_SET_NO,REV_AT_EPOCH,BSTAR,MEAN_MOTION_DOT,MEAN_MOTION_DDOT
GEOSCAN 3 (RS92S3),2025-155T,2026-07-22T21:26:41.527680,15.36515698,.00081654,97.4555,174.2213,67.5794,292.6314,0,U,64893,999,8633,.63083346E-3,.2246E-3,0
INNOSAT 3 (RS92S0),2025-155U,2026-07-22T20:49:07.000032,15.46285100,.00076894,97.4498,176.2884,73.7606,286.4489,0,U,64894,999,8647,.98104152E-3,.48516E-3,0
KNACKSAT-2,1998-067XZ,2026-07-22T11:38:31.436448,15.62993156,.00075868,51.6274,116.5146,352.0545,8.0328,0,U,67683,999,2579,.62866951E-3,.58135E-3,0
